start=new Date('2021-09-22T00:00:00.000Z').valueOf();
sats=[{"LAUNCH_DATE":"2021-01-20","ECCENTRICITY":"0.00019090","CENTER_NAME":"EARTH","MEAN_ELEMENT_THEORY":"SGP4","SITE":"AFETR","PERIOD":"95.593","ELEMENT_SET_NO":"999","INCLINATION":"53.0564","OBJECT_NAME":"STARLINK-2085","OBJECT_TYPE":"PAYLOAD","EPHEMERIS_TYPE":"0","FILE":"3121847","MEAN_MOTION":"15.06390680","GP_ID":"185158637","REF_FRAME":"TEME","EPOCH":"2021-09-21T09:51:31.770432","MEAN_MOTION_DDOT":"0.0000000000000","MEAN_MOTION_DOT":"-0.00000549","ARG_OF_PERICENTER":"68.6927","MEAN_ANOMALY":"291.4266","CLASSIFICATION_TYPE":"U","NORAD_CAT_ID":"47369","PERIAPSIS":"545.920","TIME_SYSTEM":"UTC","SEMIMAJOR_AXIS":"6925.377","DECAY_DATE":null,"TLE_LINE1":"1 47369U 21005W   21264.41078438 -.00000549  00000-0 -17935-4 0  9996","APOAPSIS":"548.564","RCS_SIZE":"LARGE","REV_AT_EPOCH":"3760","OBJECT_ID":"2021-005W","TLE_LINE2":"2 47369  53.0564 160.2269 0001909  68.6927 291.4266 15.06390680 37601","BSTAR":"-0.00001793500000","RA_OF_ASC_NODE":"160.2269","COUNTRY_CODE":"US"},{"CENTER_NAME":"EARTH","ECCENTRICITY":"0.00020900","LAUNCH_DATE":"2021-01-20","PERIOD":"95.592","MEAN_ELEMENT_THEORY":"SGP4","SITE":"AFETR","EPHEMERIS_TYPE":"0","OBJECT_TYPE":"PAYLOAD","OBJECT_NAME":"STARLINK-2086","INCLINATION":"53.0665","ELEMENT_SET_NO":"999","ARG_OF_PERICENTER":"72.2926","EPOCH":"2021-09-21T18:23:42.511200","REF_FRAME":"TEME","MEAN_MOTION_DDOT":"0.0000000000000","MEAN_MOTION_DOT":"0.00000696","MEAN_MOTION":"15.06399300","GP_ID":"185188320","FILE":"3122258","PERIAPSIS":"545.768","SEMIMAJOR_AXIS":"6925.351","TIME_SYSTEM":"UTC","CLASSIFICATION_TYPE":"U","NORAD_CAT_ID":"47370","MEAN_ANOMALY":"287.8291","TLE_LINE1":"1 47370U 21005X   21264.76646425  .00000696  00000-0  65608-4 0  9994","DECAY_DATE":null,"REV_AT_EPOCH":"3794","RCS_SIZE":"LARGE","APOAPSIS":"548.663","RA_OF_ASC_NODE":"138.5720","COUNTRY_CODE":"US","TLE_LINE2":"2 47370  53.0665 138.5720 0002090  72.2926 287.8291 15.06399300 37949","BSTAR":"0.00006560800000","OBJECT_ID":"2021-005X"},{"PERIOD":"95.593","MEAN_ELEMENT_THEORY":"SGP4","SITE":"AFETR","CENTER_NAME":"EARTH","LAUNCH_DATE":"2021-01-20","ECCENTRICITY":"0.00019850","REF_FRAME":"TEME","EPOCH":"2021-09-21T11:40:20.617536","MEAN_MOTION_DDOT":"0.0000000000000","MEAN_MOTION_DOT":"-0.00000765","ARG_OF_PERICENTER":"65.1409","FILE":"3121847","MEAN_MOTION":"15.06386811","GP_ID":"185157654","OBJECT_TYPE":"PAYLOAD","EPHEMERIS_TYPE":"0","ELEMENT_SET_NO":"999","INCLINATION":"53.0541","OBJECT_NAME":"STARLINK-2088","TLE_LINE1":"1 47371U 21005Y   21264.48634974 -.00000765  00000-0 -32458-4 0  9996","DECAY_DATE":null,"PERIAPSIS":"545.879","SEMIMAJOR_AXIS":"6925.389","TIME_SYSTEM":"UTC","MEAN_ANOMALY":"294.9786","CLASSIFICATION_TYPE":"U","NORAD_CAT_ID":"47371","RA_OF_ASC_NODE":"179.8888","COUNTRY_CODE":"US","OBJECT_ID":"2021-005Y","TLE_LINE2":"2 47371  53.0541 179.8888 0001985  65.1409 294.9786 15.06386811 37339","BSTAR":"-0.00003245800000","REV_AT_EPOCH":"3733","APOAPSIS":"548.629","RCS_SIZE":"LARGE"},{"OBJECT_ID":"2021-005Z","BSTAR":"0.00002559200000","TLE_LINE2":"2 47372  53.0545 175.0339 0001790  72.1747 287.9437 15.06389287 37391","COUNTRY_CODE":"US","RA_OF_ASC_NODE":"175.0339","APOAPSIS":"548.486","RCS_SIZE":"LARGE","REV_AT_EPOCH":"3739","DECAY_DATE":null,"TLE_LINE1":"1 47372U 21005Z   21264.45085499  .00000100  00000-0  25592-4 0  9998","MEAN_ANOMALY":"287.9437","NORAD_CAT_ID":"47372","CLASSIFICATION_TYPE":"U","TIME_SYSTEM":"UTC","SEMIMAJOR_AXIS":"6925.381","PERIAPSIS":"546.007","FILE":"3121847","GP_ID":"185157887","MEAN_MOTION":"15.06389287","MEAN_MOTION_DOT":"0.00000100","MEAN_MOTION_DDOT":"0.0000000000000","REF_FRAME":"TEME","EPOCH":"2021-09-21T10:49:13.871136","ARG_OF_PERICENTER":"72.1747","ELEMENT_SET_NO":"999","INCLINATION":"53.0545","OBJECT_NAME":"STARLINK-2089","OBJECT_TYPE":"PAYLOAD","EPHEMERIS_TYPE":"0","SITE":"AFETR","MEAN_ELEMENT_THEORY":"SGP4","PERIOD":"95.593","LAUNCH_DATE":"2021-01-20","ECCENTRICITY":"0.00017900","CENTER_NAME":"EARTH"},{"PERIOD":"95.592","MEAN_ELEMENT_THEORY":"SGP4","SITE":"AFETR","CENTER_NAME":"EARTH","ECCENTRICITY":"0.00018330","LAUNCH_DATE":"2021-01-20","ARG_OF_PERICENTER":"75.1084","REF_FRAME":"TEME","EPOCH":"2021-09-21T03:37:18.488352","MEAN_MOTION_DDOT":"0.0000000000000","MEAN_MOTION_DOT":"0.00001449","MEAN_MOTION":"15.06395196","GP_ID":"185158138","FILE":"3121847","EPHEMERIS_TYPE":"0","OBJECT_TYPE":"PAYLOAD","OBJECT_NAME":"STARLINK-2092","INCLINATION":"53.0538","ELEMENT_SET_NO":"999","TLE_LINE1":"1 47373U 21005AA  21264.15090843  .00001449  00000-0  11615-3 0  9992","DECAY_DATE":null,"PERIAPSIS":"545.959","TIME_SYSTEM":"UTC","SEMIMAJOR_AXIS":"6925.363","CLASSIFICATION_TYPE":"U","NORAD_CAT_ID":"47373","MEAN_ANOMALY":"285.0108","RA_OF_ASC_NODE":"181.3891","COUNTRY_CODE":"US","BSTAR":"0.00011615000000","TLE_LINE2":"2 47373  53.0538 181.3891 0001833  75.1084 285.0108 15.06395196 37280","OBJECT_ID":"2021-005AA","REV_AT_EPOCH":"3728","RCS_SIZE":"LARGE","APOAPSIS":"548.498"},{"INCLINATION":"53.0547","ELEMENT_SET_NO":"999","OBJECT_NAME":"STARLINK-2093","OBJECT_TYPE":"PAYLOAD","EPHEMERIS_TYPE":"0","FILE":"3121986","MEAN_MOTION":"15.06387633","GP_ID":"185162549","EPOCH":"2021-09-21T11:56:15.942336","REF_FRAME":"TEME","MEAN_MOTION_DDOT":"0.0000000000000","MEAN_MOTION_DOT":"-0.00000423","ARG_OF_PERICENTER":"70.1781","LAUNCH_DATE":"2021-01-20","ECCENTRICITY":"0.00018280","CENTER_NAME":"EARTH","MEAN_ELEMENT_THEORY":"SGP4","SITE":"AFETR","PERIOD":"95.593","APOAPSIS":"548.517","RCS_SIZE":"LARGE","REV_AT_EPOCH":"3733","OBJECT_ID":"2021-005AB","TLE_LINE2":"2 47374  53.0547 179.8492 0001828  70.1781 289.9405 15.06387633 37339","BSTAR":"-0.00000947510000","RA_OF_ASC_NODE":"179.8492","COUNTRY_CODE":"US","MEAN_ANOMALY":"289.9405","CLASSIFICATION_TYPE":"U","NORAD_CAT_ID":"47374","PERIAPSIS":"545.986","TIME_SYSTEM":"UTC","SEMIMAJOR_AXIS":"6925.386","DECAY_DATE":null,"TLE_LINE1":"1 47374U 21005AB  21264.49740674 -.00000423  00000-0 -94751-5 0  9991"},{"TLE_LINE2":"2 47375  53.0569 179.7872 0001972  62.3658 297.7532 15.06383580 38292","BSTAR":"-0.00003910600000","OBJECT_ID":"2021-005AC","RA_OF_ASC_NODE":"179.7872","COUNTRY_CODE":"US","RCS_SIZE":"LARGE","APOAPSIS":"548.630","REV_AT_EPOCH":"3829","DECAY_DATE":null,"TLE_LINE1":"1 47375U 21005AC  21264.50846135 -.00000864  00000-0 -39106-4 0  9994","CLASSIFICATION_TYPE":"U","NORAD_CAT_ID":"47375","MEAN_ANOMALY":"297.7532","PERIAPSIS":"545.898","SEMIMAJOR_AXIS":"6925.399","TIME_SYSTEM":"UTC","MEAN_MOTION":"15.06383580","GP_ID":"185163044","FILE":"3121986","ARG_OF_PERICENTER":"62.3658","EPOCH":"2021-09-21T12:12:11.060640","REF_FRAME":"TEME","MEAN_MOTION_DDOT":"0.0000000000000","MEAN_MOTION_DOT":"-0.00000864","OBJECT_NAME":"STARLINK-2094","ELEMENT_SET_NO":"999","INCLINATION":"53.0569","EPHEMERIS_TYPE":"0","OBJECT_TYPE":"PAYLOAD","MEAN_ELEMENT_THEORY":"SGP4","SITE":"AFETR","PERIOD":"95.593","ECCENTRICITY":"0.00019720","LAUNCH_DATE":"2021-01-20","CENTER_NAME":"EARTH"},{"RCS_SIZE":"LARGE","APOAPSIS":"548.636","REV_AT_EPOCH":"3728","BSTAR":"0.00009500300000","TLE_LINE2":"2 47376  53.0552 181.2577 0002041  64.1310 295.9889 15.06396938 37282","OBJECT_ID":"2021-005AD","RA_OF_ASC_NODE":"181.2577","COUNTRY_CODE":"US","CLASSIFICATION_TYPE":"U","NORAD_CAT_ID":"47376","MEAN_ANOMALY":"295.9889","PERIAPSIS":"545.809","SEMIMAJOR_AXIS":"6925.358","TIME_SYSTEM":"UTC","DECAY_DATE":null,"TLE_LINE1":"1 47376U 21005AD  21264.18039540  .00001134  00000-0  95003-4 0  9990","OBJECT_NAME":"STARLINK-2096","ELEMENT_SET_NO":"999","INCLINATION":"53.0552","EPHEMERIS_TYPE":"0","OBJECT_TYPE":"PAYLOAD","MEAN_MOTION":"15.06396938","GP_ID":"185189820","FILE":"3122258","ARG_OF_PERICENTER":"64.1310","REF_FRAME":"TEME","EPOCH":"2021-09-21T04:19:46.162560","MEAN_MOTION_DOT":"0.00001134","MEAN_MOTION_DDOT":"0.0000000000000","ECCENTRICITY":"0.00020410","LAUNCH_DATE":"2021-01-20","CENTER_NAME":"EARTH","SITE":"AFETR","MEAN_ELEMENT_THEORY":"SGP4","PERIOD":"95.592"},{"MEAN_MOTION":"15.06375202","GP_ID":"185158638","FILE":"3121847","ARG_OF_PERICENTER":"56.7039","REF_FRAME":"TEME","EPOCH":"2021-09-21T12:05:32.419680","MEAN_MOTION_DDOT":"0.0000000000000","MEAN_MOTION_DOT":"-0.00002100","OBJECT_NAME":"STARLINK-2097","ELEMENT_SET_NO":"999","INCLINATION":"53.0559","EPHEMERIS_TYPE":"0","OBJECT_TYPE":"PAYLOAD","MEAN_ELEMENT_THEORY":"SGP4","SITE":"AFETR","PERIOD":"95.594","ECCENTRICITY":"0.00019030","LAUNCH_DATE":"2021-01-20","CENTER_NAME":"EARTH","BSTAR":"-0.00012220000000","TLE_LINE2":"2 47377  53.0559 179.8151 0001903  56.7039 303.4132 15.06375202 37335","OBJECT_ID":"2021-005AE","RA_OF_ASC_NODE":"179.8151","COUNTRY_CODE":"US","RCS_SIZE":"LARGE","APOAPSIS":"548.607","REV_AT_EPOCH":"3733","DECAY_DATE":null,"TLE_LINE1":"1 47377U 21005AE  21264.50384745 -.00002100  00000-0 -12220-3 0  9992","CLASSIFICATION_TYPE":"U","NORAD_CAT_ID":"47377","MEAN_ANOMALY":"303.4132","PERIAPSIS":"545.972","TIME_SYSTEM":"UTC","SEMIMAJOR_AXIS":"6925.425"},{"EPHEMERIS_TYPE":"0","OBJECT_TYPE":"PAYLOAD","OBJECT_NAME":"STARLINK-2098","ELEMENT_SET_NO":"999","INCLINATION":"53.0562","ARG_OF_PERICENTER":"69.7396","REF_FRAME":"TEME","EPOCH":"2021-09-21T08:34:34.377312","MEAN_MOTION_DOT":"-0.00000842","MEAN_MOTION_DDOT":"0.0000000000000","MEAN_MOTION":"15.06385429","GP_ID":"185158819","FILE":"3121847","CENTER_NAME":"EARTH","ECCENTRICITY":"0.00019680","LAUNCH_DATE":"2021-01-20","PERIOD":"95.593","MEAN_ELEMENT_THEORY":"SGP4","SITE":"AFETR","REV_AT_EPOCH":"3787","RCS_SIZE":"LARGE","APOAPSIS":"548.621","RA_OF_ASC_NODE":"140.4546","COUNTRY_CODE":"US","BSTAR":"-0.00003765500000","TLE_LINE2":"2 47378  53.0562 140.4546 0001968  69.7396 290.3804 15.06385429 37874","OBJECT_ID":"2021-005AF","PERIAPSIS":"545.895","SEMIMAJOR_AXIS":"6925.393","TIME_SYSTEM":"UTC","CLASSIFICATION_TYPE":"U","NORAD_CAT_ID":"47378","MEAN_ANOMALY":"290.3804","TLE_LINE1":"1 47378U 21005AF  21264.35734233 -.00000842  00000-0 -37655-4 0  9998","DECAY_DATE":null}];
